STARLINK-5997           
1 56327U 23058L   26201.27742926  .00000738  00000+0  55016-4 0  9999
2 56327  97.2832 198.5026 0001802  89.6517 270.4918 15.05656608178070
STARLINK-5992           
1 56328U 23058M   26200.99079554 -.00000093  00000+0 -25211-5 0  9999
2 56328  97.2841 199.3464 0001866  99.2343 260.9096 15.05654396178107
STARLINK-5984           
1 56329U 23058N   26201.24278984 -.00000186  00000+0 -90005-5 0  9993
2 56329  97.2841 199.6193 0002105  88.0409 272.1060 15.05652278178143
STARLINK-5991           
1 56331U 23058Q   26200.96175219  .00000033  00000+0  62177-5 0  9999
2 56331  97.2822 198.1661 0002032  89.9948 270.1512 15.05656900178029
STARLINK-5093           
1 56332U 23058R   26201.27190153 -.00000229  00000+0 -12005-4 0  9992
2 56332  97.2836 198.5102 0001834  89.6089 270.5349 15.05649114178077
STARLINK-5553           
1 56333U 23058S   26201.00464237 -.00000034  00000+0  15265-5 0  9996
2 56333  97.2838 199.3285 0002078  89.2827 270.8639 15.05651517178107
STARLINK-5548           
1 56334U 23058T   26200.95203677  .00002054  00000+0  14615-3 0  9998
2 56334  97.2824 199.3981 0001686  89.3918 270.7503 15.05659065178107
STARLINK-5559           
1 56335U 23058U   26201.23171510  .00000111  00000+0  11573-4 0  9994
2 56335  97.2841 199.6351 0001918  89.5133 270.6314 15.05657192178142
STARLINK-5562           
1 56336U 23058V   26201.26635692 -.00000071  00000+0 -10490-5 0  9999
2 56336  97.2836 198.5184 0001443  98.8327 261.3064 15.05651507178075
STARLINK-5561           
1 56337U 23058W   26200.95068365  .00000001  00000+0  39324-5 0  9990
2 56337  97.2831 198.1822 0001333 109.2738 250.8634 15.05647654178026
STARLINK-5554           
1 56338U 23058X   26201.25528232 -.00000183  00000+0 -87748-5 0  9995
2 56338  97.2839 198.5328 0002140  92.6188 267.5285 15.05653912178077
STARLINK-5552           
1 56339U 23058Y   26200.97837589 -.00000288  00000+0 -16053-4 0  9998
2 56339  97.2841 198.2984 0002270  88.3812 271.7676 15.05651785178039
STARLINK-5540           
1 56340U 23058Z   26200.99910382  .00000469  00000+0  36412-4 0  9995
2 56340  97.2838 199.3361 0002154  92.5447 267.6027 15.05654895178107
STARLINK-5543           
1 56341U 23058AA  26201.27468280  .00002286  00000+0  16229-3 0  9995
2 56341  97.2834 198.5065 0002048  85.0530 275.0931 15.05647018178069
STARLINK-5955           
1 56342U 23058AB  26200.97418684 -.00000340  00000+0 -19647-4 0  9994
2 56342  97.2840 199.3730 0002195  88.2351 271.9128 15.05653882178108
STARLINK-5976           
1 56343U 23058AC  26201.00187341 -.00000005  00000+0  35667-5 0  9991
2 56343  97.2837 199.3332 0002140  90.8507 269.2966 15.05652162178105
STARLINK-5974           
1 56344U 23058AD  26200.96311432  .00000131  00000+0  12958-4 0  9992
2 56344  97.2821 199.3842 0001924  89.6256 270.5192 15.05657278178100
STARLINK-5979           
1 56345U 23058AE  26200.95898485  .00000135  00000+0  13221-4 0  9998
2 56345  97.2834 198.1729 0001859  87.8129 272.3311 15.05659189178029
STARLINK-5837           
1 56346U 23058AF  26200.98114468 -.00000541  00000+0 -33608-4 0  9998
2 56346  97.2846 198.2957 0002010  94.8682 265.2776 15.05651525178032
STARLINK-5829           
1 56347U 23058AG  26201.24555479 -.00003686  00000+0 -25168-3 0  9994
2 56347  97.2837 199.6166 0002072  96.9942 263.1522 15.05652519178142
STARLINK-5888           
1 56348U 23058AH  26201.23865934 -.00000230  00000+0 -12043-4 0  9995
2 56348  97.2842 198.4059 0002023  92.6704 267.4755 15.05653238178067
STARLINK-5887           
1 56349U 23058AJ  26201.25252343 -.00000497  00000+0 -30569-4 0  9990
2 56349  97.2848 198.5409 0001885  95.9351 264.2092 15.05649807178070
STARLINK-5886           
1 56350U 23058AK  26200.97141796 -.00000205  00000+0 -10306-4 0  9993
2 56350  97.2839 199.3780 0002081  90.7358 269.4108 15.05654647178109
STARLINK-5891           
1 56351U 23058AL  26201.26216861 -.00000148  00000+0 -63874-5 0  9998
2 56351  97.2835 199.5920 0002212  90.7167 269.4314 15.05655668178145
STARLINK-5885           
1 56352U 23058AM  26200.95344732  .00000583  00000+0  44271-4 0  9993
2 56352  97.2816 198.1767 0001866  89.3590 270.7852 15.05660450178021
STARLINK-5874           
1 56353U 23058AN  26200.95621461  .00000330  00000+0  26730-4 0  9991
2 56353  97.2831 198.1785 0001813 103.1939 256.9491 15.05656645178029
STARLINK-5877           
1 56354U 23058AP  26200.94925504  .00000477  00000+0  36951-4 0  9994
2 56354  97.2826 199.2512 0001505 127.6539 232.4825 15.05656105178097
STARLINK-5533           
1 56355U 23058AQ  26201.25004630  .00519365  00000+0  23914-2 0  9992
2 56355  97.5239 204.2681 0000629 105.4172 204.6203 15.82248549  5674
STARLINK-5535           
1 56356U 23058AR  26200.99357011 -.00000536  00000+0 -33214-4 0  9990
2 56356  97.2834 199.3446 0001713 103.9496 256.1922 15.05660071178105
STARLINK-5538           
1 56357U 23058AS  26200.96036458  .00000375  00000+0  29873-4 0  9992
2 56357  97.2835 199.3917 0001909  87.2707 272.8739 15.05655871178109
