OBJECT_NAME,OBJECT_ID,EPOCH,MEAN_MOTION,ECCENTRICITY,INCLINATION,RA_OF_ASC_NODE,ARG_OF_PERICENTER,MEAN_ANOMALY,EPHEMERIS_TYPE,CLASSIFICATION_TYPE,NORAD_CAT_ID,ELEMENT_SET_NO,REV_AT_EPOCH,BSTAR,MEAN_MOTION_DOT,MEAN_MOTION_DDOT
STARLINK-5997,2023-058L,2026-07-20T06:39:29.888064,15.05656608,.00018026,97.2832,198.5026,89.6517,270.4918,0,U,56327,999,17807,.55015949E-4,.738E-5,0
STARLINK-5992,2023-058M,2026-07-19T23:46:44.734656,15.05654396,.00018669,97.2841,199.3464,99.2343,260.9096,0,U,56328,999,17810,-.2521097E-5,-.93E-6,0
STARLINK-5984,2023-058N,2026-07-20T05:49:37.042176,15.05652278,.00021055,97.2841,199.6193,88.0409,272.1060,0,U,56329,999,17814,-.9000481E-5,-.186E-5,0
STARLINK-5991,2023-058Q,2026-07-19T23:04:55.389216,15.05656900,.00020322,97.2822,198.1661,89.9948,270.1512,0,U,56331,999,17802,.621771E-5,.33E-6,0
STARLINK-5093,2023-058R,2026-07-20T06:31:32.292192,15.05649114,.00018345,97.2836,198.5102,89.6089,270.5349,0,U,56332,999,17807,-.12004917E-4,-.229E-5,0
STARLINK-5553,2023-058S,2026-07-20T00:06:41.100768,15.05651517,.00020784,97.2838,199.3285,89.2827,270.8639,0,U,56333,999,17810,.152648E-5,-.34E-6,0
STARLINK-5548,2023-058T,2026-07-19T22:50:55.976928,15.05659065,.0001686,97.2824,199.3981,89.3918,270.7503,0,U,56334,999,17810,.14614978E-3,.2054E-4,0
STARLINK-5559,2023-058U,2026-07-20T05:33:40.184640,15.05657192,.0001918,97.2841,199.6351,89.5133,270.6314,0,U,56335,999,17814,.11572912E-4,.111E-5,0
STARLINK-5562,2023-058V,2026-07-20T06:23:33.237888,15.05651507,.00014437,97.2836,198.5184,98.8327,261.3064,0,U,56336,999,17807,-.1049023E-5,-.71E-6,0
STARLINK-5561,2023-058W,2026-07-19T22:48:59.067360,15.05647654,.00013336,97.2831,198.1822,109.2738,250.8634,0,U,56337,999,17802,.3932388E-5,.1E-7,0
STARLINK-5554,2023-058X,2026-07-20T06:07:36.392448,15.05653912,.000214,97.2839,198.5328,92.6188,267.5285,0,U,56338,999,17807,-.8774815E-5,-.183E-5,0
STARLINK-5552,2023-058Y,2026-07-19T23:28:51.676896,15.05651785,.00022703,97.2841,198.2984,88.3812,271.7676,0,U,56339,999,17803,-.1605286E-4,-.288E-5,0
STARLINK-5540,2023-058Z,2026-07-19T23:58:42.570048,15.05654895,.00021548,97.2838,199.3361,92.5447,267.6027,0,U,56340,999,17810,.364115E-4,.469E-5,0
STARLINK-5543,2023-058AA,2026-07-20T06:35:32.593920,15.05647018,.00020486,97.2834,198.5065,85.0530,275.0931,0,U,56341,999,17806,.16228799E-3,.2286E-4,0
STARLINK-5955,2023-058AB,2026-07-19T23:22:49.742976,15.05653882,.00021959,97.2840,199.3730,88.2351,271.9128,0,U,56342,999,17810,-.19646505E-4,-.34E-5,0
STARLINK-5976,2023-058AC,2026-07-20T00:02:41.862624,15.05652162,.00021403,97.2837,199.3332,90.8507,269.2966,0,U,56343,999,17810,.3566672E-5,-.5E-7,0
STARLINK-5974,2023-058AD,2026-07-19T23:06:53.077248,15.05657278,.00019249,97.2821,199.3842,89.6256,270.5192,0,U,56344,999,17810,.12957767E-4,.131E-5,0
STARLINK-5979,2023-058AE,2026-07-19T23:00:56.291040,15.05659189,.00018594,97.2834,198.1729,87.8129,272.3311,0,U,56345,999,17802,.13220916E-4,.135E-5,0
STARLINK-5837,2023-058AF,2026-07-19T23:32:50.900352,15.05651525,.00020102,97.2846,198.2957,94.8682,265.2776,0,U,56346,999,17803,-.33608149E-4,-.541E-5,0
STARLINK-5829,2023-058AG,2026-07-20T05:53:35.933856,15.05652519,.00020727,97.2837,199.6166,96.9942,263.1522,0,U,56347,999,17814,-.25168346E-3,-.3686E-4,0
STARLINK-5888,2023-058AH,2026-07-20T05:43:40.166976,15.05653238,.00020236,97.2842,198.4059,92.6704,267.4755,0,U,56348,999,17806,-.12042618E-4,-.23E-5,0
STARLINK-5887,2023-058AJ,2026-07-20T06:03:38.024352,15.05649807,.00018858,97.2848,198.5409,95.9351,264.2092,0,U,56349,999,17807,-.30569495E-4,-.497E-5,0
STARLINK-5886,2023-058AK,2026-07-19T23:18:50.511744,15.05654647,.00020811,97.2839,199.3780,90.7358,269.4108,0,U,56350,999,17810,-.10305755E-4,-.205E-5,0
STARLINK-5891,2023-058AL,2026-07-20T06:17:31.367904,15.05655668,.00022125,97.2835,199.5920,90.7167,269.4314,0,U,56351,999,17814,-.6387372E-5,-.148E-5,0
STARLINK-5885,2023-058AM,2026-07-19T22:52:57.848448,15.05660450,.00018665,97.2816,198.1767,89.3590,270.7852,0,U,56352,999,17802,.44271216E-4,.583E-5,0
STARLINK-5874,2023-058AN,2026-07-19T22:56:56.942304,15.05656645,.00018136,97.2831,198.1785,103.1939,256.9491,0,U,56353,999,17802,.26729881E-4,.33E-5,0
STARLINK-5877,2023-058AP,2026-07-19T22:46:55.635456,15.05656105,.00015052,97.2826,199.2512,127.6539,232.4825,0,U,56354,999,17809,.36951344E-4,.477E-5,0
STARLINK-5533,2023-058AQ,2026-07-20T06:00:04.000320,15.82248549,.00006296,97.5239,204.2681,105.4172,204.6203,0,U,56355,999,567,.23913878E-2,.519365E-2,0
STARLINK-5535,2023-058AR,2026-07-19T23:50:44.457504,15.05660071,.00017134,97.2834,199.3446,103.9496,256.1922,0,U,56356,999,17810,-.33213906E-4,-.536E-5,0
STARLINK-5538,2023-058AS,2026-07-19T23:02:55.499712,15.05655871,.00019091,97.2835,199.3917,87.2707,272.8739,0,U,56357,999,17810,.29872882E-4,.375E-5,0
